[{"OBJECT_NAME":"STARLINK-2504","OBJECT_ID":"2021-036BE","EPOCH":"2026-03-10T00:00:02.999808","MEAN_MOTION":15.25942094,"ECCENTRICITY":9.724e-5,"INCLINATION":53.1409,"RA_OF_ASC_NODE":99.5198,"ARG_OF_PERICENTER":86.8504,"MEAN_ANOMALY":190.4785,"EPHEMERIS_TYPE":0,"CLASSIFICATION_TYPE":"U","NORAD_CAT_ID":48328,"ELEMENT_SET_NO":999,"REV_AT_EPOCH":579,"BSTAR":0.065566196,"MEAN_MOTION_DOT":0.01878352,"MEAN_MOTION_DDOT":0},{"OBJECT_NAME":"STAR VIBE","OBJECT_ID":"2023-001A","EPOCH":"2026-03-09T23:09:15.855840","MEAN_MOTION":15.39777228,"ECCENTRICITY":0.00076018,"INCLINATION":97.3286,"RA_OF_ASC_NODE":133.1764,"ARG_OF_PERICENTER":111.0434,"MEAN_ANOMALY":249.1626,"EPHEMERIS_TYPE":0,"CLASSIFICATION_TYPE":"U","NORAD_CAT_ID":55009,"ELEMENT_SET_NO":999,"REV_AT_EPOCH":17694,"BSTAR":0.00044270913,"MEAN_MOTION_DOT":0.00017486,"MEAN_MOTION_DDOT":0}]
